OBJECT_NAME,OBJECT_ID,EPOCH,MEAN_MOTION,ECCENTRICITY,INCLINATION,RA_OF_ASC_NODE,ARG_OF_PERICENTER,MEAN_ANOMALY,EPHEMERIS_TYPE,CLASSIFICATION_TYPE,NORAD_CAT_ID,ELEMENT_SET_NO,REV_AT_EPOCH,BSTAR,MEAN_MOTION_DOT,MEAN_MOTION_DDOT
STARLINK-11716 [DTC],2025-111L,2025-07-20T12:43:38.793504,15.70867276,.0001533,42.9966,293.4881,275.9536,84.1156,0,U,64133,999,1017,.11904E-2,.155362E-2,0
STARLINK-11714 [DTC],2025-111M,2025-07-21T07:25:07.024512,15.70881179,.000358,42.9975,288.1209,291.7961,68.2526,0,U,64134,999,1024,.15421E-2,.202708E-2,0
STARLINK-11712 [DTC],2025-111N,2025-07-20T06:52:41.954016,15.70864273,.0001823,42.9968,295.1068,266.3925,93.6734,0,U,64135,999,1008,.1198E-2,.156358E-2,0
STARLINK-34254,2025-111P,2025-07-20T08:23:36.165696,15.27581418,.0000973,43.0001,309.6955,271.5151,88.5589,0,U,64136,999,993,.64403E-3,.17503E-3,0
STARLINK-34230,2025-111Q,2025-07-21T07:08:03.092064,15.27590601,.0003932,43.0028,304.7651,279.1247,80.9160,0,U,64137,999,1007,.54166E-3,.14679E-3,0
STARLINK-34129,2025-111R,2025-07-21T07:19:09.416640,15.27587390,.000072,42.9986,304.8239,265.8718,94.2051,0,U,64138,999,1012,.85127E-3,.23242E-3,0
STARLINK-34212,2025-111S,2025-07-20T08:38:24.292896,15.27580568,.0001255,42.9997,309.7707,269.0871,90.9836,0,U,64139,999,993,.28798E-3,.7671E-4,0
STARLINK-34149,2025-111T,2025-07-21T08:25:33.024288,15.27601097,.0001948,43.0025,304.3100,274.1793,85.8836,0,U,64140,999,1008,.89923E-3,.24582E-3,0
STARLINK-34054,2025-111U,2025-07-21T06:47:41.692416,15.27587047,.000146,42.9987,304.6561,222.5812,137.4927,0,U,64141,999,1007,.55456E-3,.15033E-3,0
STARLINK-34195,2025-111V,2025-07-21T08:05:11.886432,15.27589224,.0001163,42.9997,304.2002,251.1670,108.9056,0,U,64142,999,1008,.52443E-3,.14201E-3,0
STARLINK-34133,2025-111W,2025-07-21T07:59:39.161760,15.27572886,.0001208,42.9984,304.1702,267.7266,92.3447,0,U,64143,999,1008,.76033E-3,.20715E-3,0
STARLINK-34181,2025-111X,2025-07-20T16:49:32.397024,15.27582721,.0001487,42.9999,308.0294,267.1025,92.9656,0,U,64144,999,998,.3842E-3,.10326E-3,0
STARLINK-34186,2025-111Y,2025-07-21T08:44:03.776640,15.27580076,.0001149,42.9989,304.4015,272.0457,88.0263,0,U,64145,999,1008,.51526E-3,.13944E-3,0
STARLINK-34314,2025-112A,2025-07-21T09:17:51.345312,15.39350419,.0001088,97.6041,253.0510,98.5851,261.5517,0,U,64146,999,964,.58609E-3,.22845E-3,0
STARLINK-33926,2025-112B,2025-07-21T10:04:39.844704,15.39363036,.0000552,97.6039,253.1641,95.8263,264.3045,0,U,64147,999,963,.74862E-3,.29241E-3,0
STARLINK-34213,2025-112C,2025-07-21T02:40:01.710624,15.39358642,.0000837,97.6031,252.8049,95.7917,264.3424,0,U,64148,999,958,.69845E-3,.27265E-3,0
STARLINK-33924,2025-112D,2025-07-21T09:25:18.182784,15.38908097,.000388,97.6050,253.2034,114.9002,245.2647,0,U,64149,999,965,-.66952E-2,-.249451E-2,0
STARLINK-34209,2025-112E,2025-07-21T09:06:24.886944,15.39350708,.0000501,97.6041,253.0615,115.1227,245.0070,0,U,64150,999,969,.63392E-3,.24723E-3,0
STARLINK-34338,2025-112F,2025-07-21T02:28:35.477760,15.39363509,.0000496,97.6023,252.8142,269.2574,90.8614,0,U,64151,999,957,.11283E-2,.44202E-3,0
STARLINK-34348,2025-112G,2025-07-21T03:38:47.826816,15.39348447,.000116,97.6035,252.9052,87.1424,272.9954,0,U,64152,999,959,.30745E-3,.11925E-3,0
STARLINK-34345,2025-112H,2025-07-21T03:14:52.531872,15.39360564,.0000601,97.6034,252.9282,111.3596,248.7713,0,U,64153,999,959,.15036E-3,.5785E-4,0
STARLINK-33945,2025-112J,2025-07-20T20:40:09.486624,15.39372528,.000072,97.6024,252.6828,82.9077,277.2250,0,U,64154,999,840,.69487E-3,.27136E-3,0
STARLINK-34346,2025-112K,2025-07-21T02:38:48.105600,15.39360816,.0000378,97.6025,252.9671,81.0538,279.0750,0,U,64155,999,959,.69167E-3,.27E-3,0
STARLINK-34277,2025-112L,2025-07-21T08:07:12.400608,15.38570347,.0000872,97.6049,253.2830,156.7550,203.3734,0,U,64156,999,963,-.13522E-1,-.483198E-2,0
STARLINK-34343,2025-112M,2025-07-21T14:00:01.000224,15.36586358,.0001153,97.6035,253.5766,102.8048,264.1104,0,U,64157,999,972,-.82111E-1,-.257714E-1,0
STARLINK-34166,2025-112N,2025-07-21T10:04:07.049856,15.38923453,.0002176,97.6033,253.3264,150.2191,209.9178,0,U,64158,999,953,-.57936E-2,-.216824E-2,0
STARLINK-34344,2025-112P,2025-07-21T09:52:50.835072,15.38295443,.0003076,97.6038,253.3381,127.6578,232.4945,0,U,64159,999,958,-.18059E-1,-.627968E-2,0
STARLINK-34339,2025-112Q,2025-07-21T14:00:01.000224,15.36070520,.0002145,97.6034,253.5540,116.8637,202.6550,0,U,64160,999,967,-.88748E-1,-.2772297E-1,0
STARLINK-34341,2025-112R,2025-07-21T10:39:10.882080,15.38181696,.0000643,97.6037,253.4504,32.6392,327.4892,0,U,64161,999,965,-.19811E-1,-.6897E-2,0
STARLINK-34317,2025-112S,2025-07-21T02:26:50.565696,15.39361418,.0000928,97.6010,252.9776,99.5546,260.5804,0,U,64162,999,964,.77874E-3,.30424E-3,0
STARLINK-34340,2025-112T,2025-07-21T14:00:01.000224,15.35846427,.0002772,97.6034,253.5266,105.2259,145.9106,0,U,64163,999,966,-.84192E-1,-.2580886E-1,0
STARLINK-34263,2025-112U,2025-07-21T09:35:31.711776,15.37709267,.0004277,97.6029,253.3556,114.0469,246.1223,0,U,64164,999,963,-.20481E-1,-.701816E-2,0
STARLINK-33793,2025-112V,2025-07-21T09:22:57.900288,15.39113085,.0003124,97.6034,253.3675,132.4209,227.7300,0,U,64165,999,958,-.37874E-2,-.144015E-2,0
STARLINK-34313,2025-112W,2025-07-21T09:10:55.305120,15.39341295,.000058,97.6049,253.3804,148.3382,211.7898,0,U,64166,999,953,.56276E-3,.21923E-3,0
STARLINK-34309,2025-112X,2025-07-21T02:45:02.551968,15.39387880,.0001221,97.6055,253.1219,88.6733,271.4652,0,U,64167,999,959,.11354E-2,.44519E-3,0
STARLINK-34303,2025-112Y,2025-07-21T14:00:01.000224,15.35588706,.0002128,97.6031,253.6305,83.6811,34.8182,0,U,64168,999,972,-.83188E-1,-.2534686E-1,0
STARLINK-34175,2025-112Z,2025-07-21T09:58:26.845536,15.38803605,.0003227,97.6036,253.3333,126.2603,233.8940,0,U,64169,999,958,-.59842E-2,-.22294E-2,0
STARLINK-34177,2025-113A,2025-07-21T09:48:23.351904,15.39632658,.0000819,53.1617,85.5096,100.5332,259.5765,0,U,64170,999,965,.50853E-3,.20003E-3,0
STARLINK-34228,2025-113B,2025-07-21T14:00:01.000224,15.37020974,.000125,53.1583,84.3368,89.2657,336.2304,0,U,64171,999,968,-.52601E-1,-.1746852E-1,0
STARLINK-34233,2025-113C,2025-07-21T06:00:00.999648,15.30176131,.0001176,53.1605,86.1944,94.6263,137.5674,0,U,64172,999,962,.21618E-3,.6044E-4,0
STARLINK-34172,2025-113D,2025-07-21T14:00:01.000224,15.30157106,.0001232,53.1676,84.2974,107.3884,336.5797,0,U,64173,999,964,.15825E-2,.46743E-3,0
STARLINK-34202,2025-113E,2025-07-21T06:00:00.999648,15.30188226,.000082,53.1707,86.1138,48.0360,224.8521,0,U,64174,999,962,.32876E-3,.9387E-4,0
STARLINK-34231,2025-113F,2025-07-21T09:53:41.948448,15.30211139,.0001185,53.1606,85.5282,64.6914,295.4210,0,U,64175,999,964,.56132E-3,.16308E-3,0
STARLINK-34191,2025-113G,2025-07-21T14:00:01.000224,15.30167053,.0001141,53.1599,84.1470,82.7909,76.7773,0,U,64176,999,968,.14551E-2,.42942E-3,0
STARLINK-34164,2025-113H,2025-07-21T06:00:00.999648,15.30197069,.0001361,53.1604,86.3667,82.4632,62.4678,0,U,64177,999,962,.77232E-4,.1929E-4,0
STARLINK-34227,2025-113J,2025-07-21T06:00:00.999648,15.30201924,.0001347,53.1600,86.1462,85.6822,169.7667,0,U,64178,999,962,-.24704E-3,-.7669E-4,0
STARLINK-34194,2025-113K,2025-07-21T06:00:00.999648,15.39612783,.0001434,53.1590,86.0542,87.4249,216.1806,0,U,64179,999,962,.89628E-4,.3186E-4,0
STARLINK-34000,2025-113L,2025-07-21T06:00:00.999648,15.30203933,.000163,53.1589,85.9840,86.6139,250.2584,0,U,64180,999,957,-.2544E-3,-.7887E-4,0
STARLINK-33917,2025-113M,2025-07-20T22:53:48.301728,15.30224137,.0001332,53.1616,87.6440,82.0915,278.0237,0,U,64181,999,958,.7749E-3,.22678E-3,0
STARLINK-34131,2025-113N,2025-07-21T01:42:09.546048,15.30202410,.0001213,53.1601,86.9513,70.1275,289.9857,0,U,64182,999,951,.19372E-3,.5383E-4,0
STARLINK-34188,2025-113P,2025-07-21T06:00:00.999648,15.30207961,.0001655,53.1606,86.2962,106.2426,73.4902,0,U,64183,999,962,.75069E-3,.21945E-3,0
STARLINK-34197,2025-113Q,2025-07-21T06:00:00.999648,15.30190380,.000103,53.1604,86.3308,85.2356,77.1465,0,U,64184,999,962,.17632E-3,.4865E-4,0
STARLINK-34063,2025-113R,2025-07-21T09:40:01.693632,15.30207022,.0001946,53.1610,85.4671,89.6230,270.4994,0,U,64185,999,965,.69576E-3,.20308E-3,0
STARLINK-34200,2025-113S,2025-07-21T06:00:00.999648,15.30169640,.0001886,53.1587,85.9140,84.9737,286.7972,0,U,64186,999,963,.42797E-3,.12325E-3,0
STARLINK-33934,2025-113T,2025-07-21T06:00:00.999648,15.30170924,.0001809,53.1608,86.2264,74.6792,140.0853,0,U,64187,999,958,-.61345E-4,-.2174E-4,0
STARLINK-33929,2025-113U,2025-07-21T01:52:47.797536,15.30198112,.0001101,53.1612,86.9950,77.8681,282.2443,0,U,64188,999,960,.59591E-3,.1733E-3,0
STARLINK-33872,2025-113V,2025-07-21T06:00:00.999648,15.30176713,.0001482,53.1671,85.7626,96.2789,351.1494,0,U,64189,999,944,.33584E-3,.9593E-4,0
STARLINK-34214,2025-113W,2025-07-21T02:11:01.899744,15.30201066,.0001134,53.1598,87.0745,90.1336,269.9795,0,U,64190,999,960,.84322E-3,.24698E-3,0
STARLINK-34222,2025-113X,2025-07-21T02:18:37.608768,15.30198219,.0001173,53.1592,87.1057,88.5410,271.5725,0,U,64191,999,951,.62999E-3,.18344E-3,0
STARLINK-34265,2025-113Y,2025-07-17T18:13:15.036384,15.39406394,.0001983,53.1588,102.5459,221.3993,138.6862,0,U,64192,999,905,-.8931E-3,-.35708E-3,0
STARLINK-34245,2025-113Z,2025-07-21T09:21:10.039392,15.39636825,.0000881,53.1595,85.3884,80.8519,279.2585,0,U,64193,999,961,.63157E-3,.24959E-3,0
STARLINK-34237,2025-113AA,2025-07-20T22:24:55.937664,15.30199044,.0001269,53.1604,87.5143,93.0817,267.0329,0,U,64194,999,954,.17923E-3,.4953E-4,0
STARLINK-33857,2025-113AB,2025-07-19T10:23:28.897440,15.39623005,.0001154,53.1587,94.5075,73.5550,286.5581,0,U,64195,999,931,.72505E-3,.28714E-3,0
STARLINK-34173,2025-113AC,2025-07-21T00:00:02.000160,15.32749694,.000135,53.1608,87.4190,76.8497,182.1505,0,U,64196,999,958,.58858E-3,.18553E-3,0
STARLINK-33966,2025-117A,2025-07-20T20:15:44.305920,15.39633278,.0000681,53.1593,39.0319,70.2013,289.9065,0,U,64203,999,902,.60936E-3,.24062E-3,0
STARLINK-34331,2025-117B,2025-07-21T11:03:42.235200,15.39656752,.0001199,53.1594,35.7663,79.9532,280.1608,0,U,64204,999,806,.12033E-2,.48094E-3,0
